[{"OBJECT_NAME":"TEVEL2-9","OBJECT_ID":"2025-052AD","EPOCH":"2026-03-09T16:51:18.321696","MEAN_MOTION":15.28633834,"ECCENTRICITY":0.000799,"INCLINATION":97.4057,"RA_OF_ASC_NODE":324.3929,"ARG_OF_PERICENTER":124.2475,"MEAN_ANOMALY":235.9522,"EPHEMERIS_TYPE":0,"CLASSIFICATION_TYPE":"U","NORAD_CAT_ID":63237,"ELEMENT_SET_NO":999,"REV_AT_EPOCH":5481,"BSTAR":0.00067240159,"MEAN_MOTION_DOT":0.00018694,"MEAN_MOTION_DDOT":0},{"OBJECT_NAME":"STARLINK-35771","OBJECT_ID":"2025-303J","EPOCH":"2026-03-09T23:12:36.519840","MEAN_MOTION":15.27631948,"ECCENTRICITY":7.303e-5,"INCLINATION":42.9981,"RA_OF_ASC_NODE":309.4879,"ARG_OF_PERICENTER":129.4753,"MEAN_ANOMALY":230.6163,"EPHEMERIS_TYPE":0,"CLASSIFICATION_TYPE":"U","NORAD_CAT_ID":67171,"ELEMENT_SET_NO":999,"REV_AT_EPOCH":1277,"BSTAR":0.0011827667,"MEAN_MOTION_DOT":0.0003248,"MEAN_MOTION_DDOT":0}]
